{
  "type": "FeatureCollection",
  "features": [
    {
      "type": "Feature",
      "properties": {
        "norad_id": 46271,
        "name": "COSMOS 2251 DEB",
        "group": "cosmos-2251-debris",
        "lat": -23.045731723656008,
        "lon": -116.43458518239501,
        "alt_km": 701.1393183447817,
        "timestamp": "2025-12-24T05:51:20.007882+00:00",
        "meta_object_name": "COSMOS 2251 DEB",
        "meta_object_id": "1993-036BWT",
        "meta_epoch": "2025-12-23T10:43:26.670144",
        "meta_mean_motion": 14.51452008,
        "meta_eccentricity": 0.00396452,
        "meta_inclination": 74.0466,
        "meta_ra_of_asc_node": 58.0745,
        "meta_arg_of_pericenter": 177.4947,
        "meta_mean_anomaly": 182.6421,
        "meta_ephemeris_type": 0,
        "meta_classification_type": "U",
        "meta_norad_cat_id": 46271,
        "meta_element_set_no": 999,
        "meta_rev_at_epoch": 84797,
        "meta_bstar": 0.00025039909,
        "meta_mean_motion_dot": 9.82e-06,
        "meta_mean_motion_ddot": 0,
        "tle_line1": "1 46271U 93036BWT 25357.44683646  .00000982  00000+0  25040-3 0  9996",
        "tle_line2": "2 46271  74.0466  58.0745 0039645 177.4947 182.6421 14.51452008847973"
      },
      "geometry": {
        "type": "Point",
        "coordinates": [
          -116.43458518239501,
          -23.045731723656008
        ]
      }
    },
    {
      "type": "Feature",
      "properties": {
        "norad_id": 46430,
        "name": "COSMOS 2251 DEB",
        "group": "cosmos-2251-debris",
        "lat": -73.55442256022191,
        "lon": -127.638041093627,
        "alt_km": 656.8110194932488,
        "timestamp": "2025-12-24T05:51:20.007892+00:00",
        "meta_object_name": "COSMOS 2251 DEB",
        "meta_object_id": "1993-036BWU",
        "meta_epoch": "2025-12-22T16:14:06.887040",
        "meta_mean_motion": 14.51442901,
        "meta_eccentricity": 0.01029275,
        "meta_inclination": 73.9145,
        "meta_ra_of_asc_node": 337.5005,
        "meta_arg_of_pericenter": 256.0795,
        "meta_mean_anomaly": 102.8901,
        "meta_ephemeris_type": 0,
        "meta_classification_type": "U",
        "meta_norad_cat_id": 46430,
        "meta_element_set_no": 999,
        "meta_rev_at_epoch": 79827,
        "meta_bstar": 0.0019695835,
        "meta_mean_motion_dot": 8.403e-05,
        "meta_mean_motion_ddot": 0,
        "tle_line1": "1 46430U 93036BWU 25356.67646860  .00008403  00000+0  19696-2 0  9999",
        "tle_line2": "2 46430  73.9145 337.5005 0102927 256.0795 102.8901 14.51442901798271"
      },
      "geometry": {
        "type": "Point",
        "coordinates": [
          -127.638041093627,
          -73.55442256022191
        ]
      }
    },
    {
      "type": "Feature",
      "properties": {
        "norad_id": 46432,
        "name": "COSMOS 2251 DEB",
        "group": "cosmos-2251-debris",
        "lat": -28.207753898056342,
        "lon": 84.24000192349462,
        "alt_km": 1301.9783412742781,
        "timestamp": "2025-12-24T05:51:20.007902+00:00",
        "meta_object_name": "COSMOS 2251 DEB",
        "meta_object_id": "1993-036BWW",
        "meta_epoch": "2025-12-22T01:03:47.474208",
        "meta_mean_motion": 13.36654939,
        "meta_eccentricity": 0.04738658,
        "meta_inclination": 73.8725,
        "meta_ra_of_asc_node": 96.6323,
        "meta_arg_of_pericenter": 212.6525,
        "meta_mean_anomaly": 332.3153,
        "meta_ephemeris_type": 0,
        "meta_classification_type": "U",
        "meta_norad_cat_id": 46432,
        "meta_element_set_no": 999,
        "meta_rev_at_epoch": 67090,
        "meta_bstar": 0.00093620994,
        "meta_mean_motion_dot": 9e-06,
        "meta_mean_motion_ddot": 0,
        "tle_line1": "1 46432U 93036BWW 25356.04429947  .00000900  00000+0  93621-3 0  9992",
        "tle_line2": "2 46432  73.8725  96.6323 0473865 212.6525 332.3153 13.36654939670909"
      },
      "geometry": {
        "type": "Point",
        "coordinates": [
          84.24000192349462,
          -28.207753898056342
        ]
      }
    },
    {
      "type": "Feature",
      "properties": {
        "norad_id": 47045,
        "name": "COSMOS 2251 DEB",
        "group": "cosmos-2251-debris",
        "lat": -70.87575182700844,
        "lon": 72.4571340547189,
        "alt_km": 747.9819219339197,
        "timestamp": "2025-12-24T05:51:20.007912+00:00",
        "meta_object_name": "COSMOS 2251 DEB",
        "meta_object_id": "1993-036BWZ",
        "meta_epoch": "2025-12-22T15:55:55.342272",
        "meta_mean_motion": 14.38905258,
        "meta_eccentricity": 0.00303733,
        "meta_inclination": 74.058,
        "meta_ra_of_asc_node": 130.8857,
        "meta_arg_of_pericenter": 270.255,
        "meta_mean_anomaly": 108.4261,
        "meta_ephemeris_type": 0,
        "meta_classification_type": "U",
        "meta_norad_cat_id": 47045,
        "meta_element_set_no": 999,
        "meta_rev_at_epoch": 7948,
        "meta_bstar": 8.0309913e-05,
        "meta_mean_motion_dot": 2.22e-06,
        "meta_mean_motion_ddot": 0,
        "tle_line1": "1 47045U 93036BWZ 25356.66383498  .00000222  00000+0  80310-4 0  9990",
        "tle_line2": "2 47045  74.0580 130.8857 0030373 270.2550 108.4261 14.38905258 79480"
      },
      "geometry": {
        "type": "Point",
        "coordinates": [
          72.4571340547189,
          -70.87575182700844
        ]
      }
    },
    {
      "type": "Feature",
      "properties": {
        "norad_id": 47048,
        "name": "COSMOS 2251 DEB",
        "group": "cosmos-2251-debris",
        "lat": 39.7324606105592,
        "lon": -48.76482422667014,
        "alt_km": 697.8618096122409,
        "timestamp": "2025-12-24T05:51:20.007922+00:00",
        "meta_object_name": "COSMOS 2251 DEB",
        "meta_object_id": "1993-036BXC",
        "meta_epoch": "2025-12-21T05:13:53.078880",
        "meta_mean_motion": 14.5236804,
        "meta_eccentricity": 0.013255,
        "meta_inclination": 73.9787,
        "meta_ra_of_asc_node": 303.1415,
        "meta_arg_of_pericenter": 128.8028,
        "meta_mean_anomaly": 299.2168,
        "meta_ephemeris_type": 0,
        "meta_classification_type": "U",
        "meta_norad_cat_id": 47048,
        "meta_element_set_no": 999,
        "meta_rev_at_epoch": 59813,
        "meta_bstar": 0.00086716,
        "meta_mean_motion_dot": 3.933e-05,
        "meta_mean_motion_ddot": 0,
        "tle_line1": "1 47048U 93036BXC 25355.21797545  .00003933  00000+0  86716-3 0  9992",
        "tle_line2": "2 47048  73.9787 303.1415 0132550 128.8028 299.2168 14.52368040598134"
      },
      "geometry": {
        "type": "Point",
        "coordinates": [
          -48.76482422667014,
          39.7324606105592
        ]
      }
    },
    {
      "type": "Feature",
      "properties": {
        "norad_id": 47051,
        "name": "COSMOS 2251 DEB",
        "group": "cosmos-2251-debris",
        "lat": 72.18404843857583,
        "lon": -132.71960505423036,
        "alt_km": 1245.8520768460621,
        "timestamp": "2025-12-24T05:51:20.007933+00:00",
        "meta_object_name": "COSMOS 2251 DEB",
        "meta_object_id": "1993-036BXF",
        "meta_epoch": "2025-12-13T06:55:53.868288",
        "meta_mean_motion": 13.67117141,
        "meta_eccentricity": 0.03401033,
        "meta_inclination": 74.1001,
        "meta_ra_of_asc_node": 182.6908,
        "meta_arg_of_pericenter": 296.1774,
        "meta_mean_anomaly": 246.9893,
        "meta_ephemeris_type": 0,
        "meta_classification_type": "U",
        "meta_norad_cat_id": 47051,
        "meta_element_set_no": 999,
        "meta_rev_at_epoch": 59945,
        "meta_bstar": 0.0019326179,
        "meta_mean_motion_dot": 2.391e-05,
        "meta_mean_motion_ddot": 0,
        "tle_line1": "1 47051U 93036BXF 25347.28881792  .00002391  00000+0  19326-2 0  9991",
        "tle_line2": "2 47051  74.1001 182.6908 0340103 296.1774 246.9893 13.67117141599458"
      },
      "geometry": {
        "type": "Point",
        "coordinates": [
          -132.71960505423036,
          72.18404843857583
        ]
      }
    },
    {
      "type": "Feature",
      "properties": {
        "norad_id": 47052,
        "name": "COSMOS 2251 DEB",
        "group": "cosmos-2251-debris",
        "lat": 73.90751929416413,
        "lon": 56.740889463823194,
        "alt_km": 745.9554502461106,
        "timestamp": "2025-12-24T05:51:20.007943+00:00",
        "meta_object_name": "COSMOS 2251 DEB",
        "meta_object_id": "1993-036BXG",
        "meta_epoch": "2025-12-13T17:42:34.547904",
        "meta_mean_motion": 14.35482778,
        "meta_eccentricity": 0.00580984,
        "meta_inclination": 74.0478,
        "meta_ra_of_asc_node": 338.4955,
        "meta_arg_of_pericenter": 52.4094,
        "meta_mean_anomaly": 127.807,
        "meta_ephemeris_type": 0,
        "meta_classification_type": "U",
        "meta_norad_cat_id": 47052,
        "meta_element_set_no": 999,
        "meta_rev_at_epoch": 61803,
        "meta_bstar": 0.00037288685,
        "meta_mean_motion_dot": 1.067e-05,
        "meta_mean_motion_ddot": 0,
        "tle_line1": "1 47052U 93036BXG 25347.73789986  .00001067  00000+0  37289-3 0  9992",
        "tle_line2": "2 47052  74.0478 338.4955 0058098  52.4094 127.8070 14.35482778618033"
      },
      "geometry": {
        "type": "Point",
        "coordinates": [
          56.740889463823194,
          73.90751929416413
        ]
      }
    }
  ]
}